{
  "type": "FeatureCollection",
  "features": [
    {
      "type": "Feature",
      "properties": {
        "norad_id": 33747,
        "name": "FENGYUN 1C DEB",
        "group": "fengyun-1c-debris",
        "lat": -7.0982338497639805,
        "lon": -96.60094573071403,
        "alt_km": 777.0756019270657,
        "timestamp": "2025-12-15T19:00:45.643793+00:00",
        "meta_object_name": "FENGYUN 1C DEB",
        "meta_object_id": "1999-025DJL",
        "meta_epoch": "2025-12-07T00:03:01.560960",
        "meta_mean_motion": 14.17338054,
        "meta_eccentricity": 0.00899301,
        "meta_inclination": 99.098,
        "meta_ra_of_asc_node": 75.547,
        "meta_arg_of_pericenter": 232.9564,
        "meta_mean_anomaly": 126.336,
        "meta_ephemeris_type": 0,
        "meta_classification_type": "U",
        "meta_norad_cat_id": 33747,
        "meta_element_set_no": 999,
        "meta_rev_at_epoch": 90051,
        "meta_bstar": 0.0039970984,
        "meta_mean_motion_dot": 8.373e-05,
        "meta_mean_motion_ddot": 0,
        "tle_line1": "1 33747U 99025DJL 25341.00210140  .00008373  00000+0  39971-2 0  9993",
        "tle_line2": "2 33747  99.0980  75.5470 0089930 232.9564 126.3360 14.17338054900511"
      },
      "geometry": {
        "type": "Point",
        "coordinates": [
          -96.60094573071403,
          -7.0982338497639805
        ]
      }
    },
    {
      "type": "Feature",
      "properties": {
        "norad_id": 33748,
        "name": "FENGYUN 1C DEB",
        "group": "fengyun-1c-debris",
        "lat": 8.657522732239356,
        "lon": 39.59714549199364,
        "alt_km": 803.8723789101041,
        "timestamp": "2025-12-15T19:00:45.643803+00:00",
        "meta_object_name": "FENGYUN 1C DEB",
        "meta_object_id": "1999-025DJM",
        "meta_epoch": "2025-12-14T21:10:33.943584",
        "meta_mean_motion": 14.323001,
        "meta_eccentricity": 0.00346383,
        "meta_inclination": 98.5869,
        "meta_ra_of_asc_node": 40.0147,
        "meta_arg_of_pericenter": 234.5874,
        "meta_mean_anomaly": 125.2073,
        "meta_ephemeris_type": 0,
        "meta_classification_type": "U",
        "meta_norad_cat_id": 33748,
        "meta_element_set_no": 999,
        "meta_rev_at_epoch": 91424,
        "meta_bstar": 0.001001797,
        "meta_mean_motion_dot": 2.679e-05,
        "meta_mean_motion_ddot": 0,
        "tle_line1": "1 33748U 99025DJM 25348.88233731  .00002679  00000+0  10018-2 0  9992",
        "tle_line2": "2 33748  98.5869  40.0147 0034638 234.5874 125.2073 14.32300100914249"
      },
      "geometry": {
        "type": "Point",
        "coordinates": [
          39.59714549199364,
          8.657522732239356
        ]
      }
    },
    {
      "type": "Feature",
      "properties": {
        "norad_id": 35088,
        "name": "FENGYUN 1C DEB",
        "group": "fengyun-1c-debris",
        "lat": -42.835504502466115,
        "lon": -20.410511072480315,
        "alt_km": 688.5455701877227,
        "timestamp": "2025-12-15T19:00:45.643814+00:00",
        "meta_object_name": "FENGYUN 1C DEB",
        "meta_object_id": "1999-025DJQ",
        "meta_epoch": "2025-12-12T18:31:51.390912",
        "meta_mean_motion": 14.1194857,
        "meta_eccentricity": 0.02676008,
        "meta_inclination": 94.6219,
        "meta_ra_of_asc_node": 162.3279,
        "meta_arg_of_pericenter": 203.3469,
        "meta_mean_anomaly": 155.5376,
        "meta_ephemeris_type": 0,
        "meta_classification_type": "U",
        "meta_norad_cat_id": 35088,
        "meta_element_set_no": 999,
        "meta_rev_at_epoch": 58800,
        "meta_bstar": 0.010610685,
        "meta_mean_motion_dot": 0.0002728,
        "meta_mean_motion_ddot": 0,
        "tle_line1": "1 35088U 99025DJQ 25346.77212258  .00027280  00000+0  10611-1 0  9991",
        "tle_line2": "2 35088  94.6219 162.3279 0267600 203.3469 155.5376 14.11948570588008"
      },
      "geometry": {
        "type": "Point",
        "coordinates": [
          -20.410511072480315,
          -42.835504502466115
        ]
      }
    },
    {
      "type": "Feature",
      "properties": {
        "norad_id": 35089,
        "name": "FENGYUN 1C DEB",
        "group": "fengyun-1c-debris",
        "lat": -30.54905169718146,
        "lon": 174.42909589000766,
        "alt_km": 852.1431007102956,
        "timestamp": "2025-12-15T19:00:45.643824+00:00",
        "meta_object_name": "FENGYUN 1C DEB",
        "meta_object_id": "1999-025DJR",
        "meta_epoch": "2025-12-14T18:20:22.290432",
        "meta_mean_motion": 14.19422646,
        "meta_eccentricity": 0.00290763,
        "meta_inclination": 98.5597,
        "meta_ra_of_asc_node": 358.5355,
        "meta_arg_of_pericenter": 59.2286,
        "meta_mean_anomaly": 301.1747,
        "meta_ephemeris_type": 0,
        "meta_classification_type": "U",
        "meta_norad_cat_id": 35089,
        "meta_element_set_no": 999,
        "meta_rev_at_epoch": 60904,
        "meta_bstar": 0.00061178666,
        "meta_mean_motion_dot": 1.25e-05,
        "meta_mean_motion_ddot": 0,
        "tle_line1": "1 35089U 99025DJR 25348.76414688  .00001250  00000+0  61179-3 0  9990",
        "tle_line2": "2 35089  98.5597 358.5355 0029076  59.2286 301.1747 14.19422646609041"
      },
      "geometry": {
        "type": "Point",
        "coordinates": [
          174.42909589000766,
          -30.54905169718146
        ]
      }
    },
    {
      "type": "Feature",
      "properties": {
        "norad_id": 35090,
        "name": "FENGYUN 1C DEB",
        "group": "fengyun-1c-debris",
        "lat": 28.221856824227803,
        "lon": -172.41794465744871,
        "alt_km": 865.3588210191338,
        "timestamp": "2025-12-15T19:00:45.643834+00:00",
        "meta_object_name": "FENGYUN 1C DEB",
        "meta_object_id": "1999-025DJS",
        "meta_epoch": "2025-11-28T11:16:09.482016",
        "meta_mean_motion": 14.17474979,
        "meta_eccentricity": 0.00568935,
        "meta_inclination": 99.1993,
        "meta_ra_of_asc_node": 344.6679,
        "meta_arg_of_pericenter": 56.1043,
        "meta_mean_anomaly": 304.5524,
        "meta_ephemeris_type": 0,
        "meta_classification_type": "U",
        "meta_norad_cat_id": 35090,
        "meta_element_set_no": 999,
        "meta_rev_at_epoch": 66048,
        "meta_bstar": 0.0014922384,
        "meta_mean_motion_dot": 3.028e-05,
        "meta_mean_motion_ddot": 0,
        "tle_line1": "1 35090U 99025DJS 25332.46955419  .00003028  00000+0  14922-2 0  9992",
        "tle_line2": "2 35090  99.1993 344.6679 0056893  56.1043 304.5524 14.17474979660488"
      },
      "geometry": {
        "type": "Point",
        "coordinates": [
          -172.41794465744871,
          28.221856824227803
        ]
      }
    },
    {
      "type": "Feature",
      "properties": {
        "norad_id": 35091,
        "name": "FENGYUN 1C DEB",
        "group": "fengyun-1c-debris",
        "lat": -66.37790289003912,
        "lon": -106.02934769462036,
        "alt_km": 666.5837838092375,
        "timestamp": "2025-12-15T19:00:45.643844+00:00",
        "meta_object_name": "FENGYUN 1C DEB",
        "meta_object_id": "1999-025DJT",
        "meta_epoch": "2025-12-14T05:43:58.882944",
        "meta_mean_motion": 14.61613588,
        "meta_eccentricity": 0.00487949,
        "meta_inclination": 98.5965,
        "meta_ra_of_asc_node": 92.5926,
        "meta_arg_of_pericenter": 287.1914,
        "meta_mean_anomaly": 72.3947,
        "meta_ephemeris_type": 0,
        "meta_classification_type": "U",
        "meta_norad_cat_id": 35091,
        "meta_element_set_no": 999,
        "meta_rev_at_epoch": 89949,
        "meta_bstar": 0.0029711627,
        "meta_mean_motion_dot": 0.00014999,
        "meta_mean_motion_ddot": 0,
        "tle_line1": "1 35091U 99025DJT 25348.23887596  .00014999  00000+0  29712-2 0  9997",
        "tle_line2": "2 35091  98.5965  92.5926 0048794 287.1914  72.3947 14.61613588899493"
      },
      "geometry": {
        "type": "Point",
        "coordinates": [
          -106.02934769462036,
          -66.37790289003912
        ]
      }
    },
    {
      "type": "Feature",
      "properties": {
        "norad_id": 35102,
        "name": "FENGYUN 1C DEB",
        "group": "fengyun-1c-debris",
        "lat": 41.22190036009976,
        "lon": -7.527565163989557,
        "alt_km": 759.0955063600131,
        "timestamp": "2025-12-15T19:00:45.643855+00:00",
        "meta_object_name": "FENGYUN 1C DEB",
        "meta_object_id": "1999-025DKE",
        "meta_epoch": "2025-12-13T06:19:02.409312",
        "meta_mean_motion": 14.28874039,
        "meta_eccentricity": 0.00607637,
        "meta_inclination": 98.4802,
        "meta_ra_of_asc_node": 357.5239,
        "meta_arg_of_pericenter": 90.2418,
        "meta_mean_anomaly": 270.5727,
        "meta_ephemeris_type": 0,
        "meta_classification_type": "U",
        "meta_norad_cat_id": 35102,
        "meta_element_set_no": 999,
        "meta_rev_at_epoch": 64920,
        "meta_bstar": 0.00073405609,
        "meta_mean_motion_dot": 1.848e-05,
        "meta_mean_motion_ddot": 0,
        "tle_line1": "1 35102U 99025DKE 25347.26322233  .00001848  00000+0  73406-3 0  9993",
        "tle_line2": "2 35102  98.4802 357.5239 0060763  90.2418 270.5727 14.28874039649201"
      },
      "geometry": {
        "type": "Point",
        "coordinates": [
          -7.527565163989557,
          41.22190036009976
        ]
      }
    }
  ]
}